[{"OBJECT_NAME":"BEIJING 1","OBJECT_ID":"2005-043A","EPOCH":"2026-03-09T22:42:03.803040","MEAN_MOTION":14.63461381,"ECCENTRICITY":0.00135876,"INCLINATION":98.2733,"RA_OF_ASC_NODE":201.7002,"ARG_OF_PERICENTER":229.3991,"MEAN_ANOMALY":130.6029,"EPHEMERIS_TYPE":0,"CLASSIFICATION_TYPE":"U","NORAD_CAT_ID":28890,"ELEMENT_SET_NO":999,"REV_AT_EPOCH":8613,"BSTAR":0.0001420019,"MEAN_MOTION_DOT":6.87e-6,"MEAN_MOTION_DDOT":0},{"OBJECT_NAME":"METEOR 2-7 DEB","OBJECT_ID":"1981-043F","EPOCH":"2026-03-08T20:25:54.484320","MEAN_MOTION":14.61822568,"ECCENTRICITY":0.00222285,"INCLINATION":81.2695,"RA_OF_ASC_NODE":23.9813,"ARG_OF_PERICENTER":316.6747,"MEAN_ANOMALY":43.2704,"EPHEMERIS_TYPE":0,"CLASSIFICATION_TYPE":"U","NORAD_CAT_ID":28389,"ELEMENT_SET_NO":999,"REV_AT_EPOCH":11335,"BSTAR":0.004981224,"MEAN_MOTION_DOT":0.00025046,"MEAN_MOTION_DDOT":0}]
